[
    {
       "OBJECT_NAME": "STARLINK-1020",
       "OBJECT_ID": "2019-074N",
       "EPOCH": "2022-03-13T13:46:23.766816",
       "MEAN_MOTION": 15.06400531,
       "ECCENTRICITY": 0.0001463,
       "INCLINATION": 53.0536,
       "RA_OF_ASC_NODE": 267.8549,
       "ARG_OF_PERICENTER": 68.4419,
       "MEAN_ANOMALY": 291.6726,
       "EPHEMERIS_TYPE": 0,
       "CLASSIFICATION_TYPE": "U",
       "NORAD_CAT_ID": 44725,
       "ELEMENT_SET_NO": 999,
       "REV_AT_EPOCH": 12884,
       "BSTAR": -0.00002326,
       "MEAN_MOTION_DOT": -0.00000628,
       "MEAN_MOTION_DDOT": 0
    },
    {
       "OBJECT_NAME": "STARLINK-1021",
       "OBJECT_ID": "2019-074P",
       "EPOCH": "2022-03-13T18:19:45.418368",
       "MEAN_MOTION": 15.06405881,
       "ECCENTRICITY": 0.0001539,
       "INCLINATION": 53.0528,
       "RA_OF_ASC_NODE": 247.0217,
       "ARG_OF_PERICENTER": 72.3977,
       "MEAN_ANOMALY": 287.718,
       "EPHEMERIS_TYPE": 0,
       "CLASSIFICATION_TYPE": "U",
       "NORAD_CAT_ID": 44726,
       "ELEMENT_SET_NO": 999,
       "REV_AT_EPOCH": 12932,
       "BSTAR": -0.000030537,
       "MEAN_MOTION_DOT": -0.00000736,
       "MEAN_MOTION_DDOT": 0
    },
    {
       "OBJECT_NAME": "STARLINK-1022",
       "OBJECT_ID": "2019-074Q",
       "EPOCH": "2022-03-13T20:47:00.060288",
       "MEAN_MOTION": 15.06403731,
       "ECCENTRICITY": 0.0001714,
       "INCLINATION": 53.0533,
       "RA_OF_ASC_NODE": 286.5601,
       "ARG_OF_PERICENTER": 57.1216,
       "MEAN_ANOMALY": 302.9938,
       "EPHEMERIS_TYPE": 0,
       "CLASSIFICATION_TYPE": "U",
       "NORAD_CAT_ID": 44727,
       "ELEMENT_SET_NO": 999,
       "REV_AT_EPOCH": 12879,
       "BSTAR": -0.00012106,
       "MEAN_MOTION_DOT": -0.00002085,
       "MEAN_MOTION_DDOT": 0
    },
    {
       "OBJECT_NAME": "STARLINK-1024",
       "OBJECT_ID": "2019-074S",
       "EPOCH": "2022-03-13T18:37:31.685088",
       "MEAN_MOTION": 15.10193563,
       "ECCENTRICITY": 0.0001526,
       "INCLINATION": 53.0003,
       "RA_OF_ASC_NODE": 260.8371,
       "ARG_OF_PERICENTER": 70.0158,
       "MEAN_ANOMALY": 290.0996,
       "EPHEMERIS_TYPE": 0,
       "CLASSIFICATION_TYPE": "U",
       "NORAD_CAT_ID": 44729,
       "ELEMENT_SET_NO": 999,
       "REV_AT_EPOCH": 12910,
       "BSTAR": 0.00062224,
       "MEAN_MOTION_DOT": 0.00010002,
       "MEAN_MOTION_DDOT": 0
    },
    {
       "OBJECT_NAME": "STARLINK-1026",
       "OBJECT_ID": "2019-074U",
       "EPOCH": "2022-03-13T18:35:40.528032",
       "MEAN_MOTION": 15.0639252,
       "ECCENTRICITY": 0.0001534,
       "INCLINATION": 53.0522,
       "RA_OF_ASC_NODE": 246.9526,
       "ARG_OF_PERICENTER": 73.4772,
       "MEAN_ANOMALY": 286.6386,
       "EPHEMERIS_TYPE": 0,
       "CLASSIFICATION_TYPE": "U",
       "NORAD_CAT_ID": 44731,
       "ELEMENT_SET_NO": 999,
       "REV_AT_EPOCH": 12932,
       "BSTAR": -0.000057914,
       "MEAN_MOTION_DOT": -0.00001144,
       "MEAN_MOTION_DDOT": 0
    },
    {
       "OBJECT_NAME": "STARLINK-1027",
       "OBJECT_ID": "2019-074V",
       "EPOCH": "2022-03-13T13:30:29.026080",
       "MEAN_MOTION": 15.06401074,
       "ECCENTRICITY": 0.0001577,
       "INCLINATION": 53.0531,
       "RA_OF_ASC_NODE": 267.9118,
       "ARG_OF_PERICENTER": 56.3868,
       "MEAN_ANOMALY": 303.7272,
       "EPHEMERIS_TYPE": 0,
       "CLASSIFICATION_TYPE": "U",
       "NORAD_CAT_ID": 44732,
       "ELEMENT_SET_NO": 999,
       "REV_AT_EPOCH": 12884,
       "BSTAR": -0.00022192,
       "MEAN_MOTION_DOT": -0.00003586,
       "MEAN_MOTION_DDOT": 0
    },
    {
       "OBJECT_NAME": "STARLINK-1028",
       "OBJECT_ID": "2019-074W",
       "EPOCH": "2022-03-13T18:14:26.455488",
       "MEAN_MOTION": 15.06413692,
       "ECCENTRICITY": 0.0001575,
       "INCLINATION": 53.0524,
       "RA_OF_ASC_NODE": 247.0356,
       "ARG_OF_PERICENTER": 69.2005,
       "MEAN_ANOMALY": 290.9153,
       "EPHEMERIS_TYPE": 0,
       "CLASSIFICATION_TYPE": "U",
       "NORAD_CAT_ID": 44733,
       "ELEMENT_SET_NO": 999,
       "REV_AT_EPOCH": 12932,
       "BSTAR": -0.000046605,
       "MEAN_MOTION_DOT": -0.00000976,
       "MEAN_MOTION_DDOT": 0
    },
    {
       "OBJECT_NAME": "STARLINK-1029",
       "OBJECT_ID": "2019-074X",
       "EPOCH": "2022-03-13T13:49:02.024832",
       "MEAN_MOTION": 15.06423628,
       "ECCENTRICITY": 0.0001523,
       "INCLINATION": 53.0548,
       "RA_OF_ASC_NODE": 167.8563,
       "ARG_OF_PERICENTER": 62.8723,
       "MEAN_ANOMALY": 297.2421,
       "EPHEMERIS_TYPE": 0,
       "CLASSIFICATION_TYPE": "U",
       "NORAD_CAT_ID": 44734,
       "ELEMENT_SET_NO": 999,
       "REV_AT_EPOCH": 13022,
       "BSTAR": 0.00073309,
       "MEAN_MOTION_DOT": 0.00010662,
       "MEAN_MOTION_DDOT": 0
    },
    {
       "OBJECT_NAME": "STARLINK-1030",
       "OBJECT_ID": "2019-074Y",
       "EPOCH": "2022-03-13T20:03:15.770016",
       "MEAN_MOTION": 15.06397584,
       "ECCENTRICITY": 0.000165,
       "INCLINATION": 53.0518,
       "RA_OF_ASC_NODE": 266.6866,
       "ARG_OF_PERICENTER": 59.7788,
       "MEAN_ANOMALY": 300.3364,
       "EPHEMERIS_TYPE": 0,
       "CLASSIFICATION_TYPE": "U",
       "NORAD_CAT_ID": 44735,
       "ELEMENT_SET_NO": 999,
       "REV_AT_EPOCH": 12905,
       "BSTAR": -0.000035216,
       "MEAN_MOTION_DOT": -0.00000806,
       "MEAN_MOTION_DDOT": 0
    },
    {
       "OBJECT_NAME": "STARLINK-1031",
       "OBJECT_ID": "2019-074Z",
       "EPOCH": "2022-03-13T20:24:29.615328",
       "MEAN_MOTION": 15.06394607,
       "ECCENTRICITY": 0.000165,
       "INCLINATION": 53.055,
       "RA_OF_ASC_NODE": 266.6344,
       "ARG_OF_PERICENTER": 71.9535,
       "MEAN_ANOMALY": 288.1633,
       "EPHEMERIS_TYPE": 0,
       "CLASSIFICATION_TYPE": "U",
       "NORAD_CAT_ID": 44736,
       "ELEMENT_SET_NO": 999,
       "REV_AT_EPOCH": 12906,
       "BSTAR": -0.000033997,
       "MEAN_MOTION_DOT": -0.00000788,
       "MEAN_MOTION_DDOT": 0
    },
    {
       "OBJECT_NAME": "STARLINK-1032",
       "OBJECT_ID": "2019-074AA",
       "EPOCH": "2022-03-13T19:04:52.426272",
       "MEAN_MOTION": 15.06397967,
       "ECCENTRICITY": 0.0001594,
       "INCLINATION": 53.0538,
       "RA_OF_ASC_NODE": 266.8827,
       "ARG_OF_PERICENTER": 60.8506,
       "MEAN_ANOMALY": 299.2643,
       "EPHEMERIS_TYPE": 0,
       "CLASSIFICATION_TYPE": "U",
       "NORAD_CAT_ID": 44737,
       "ELEMENT_SET_NO": 999,
       "REV_AT_EPOCH": 12905,
       "BSTAR": -0.000040967,
       "MEAN_MOTION_DOT": -0.00000892,
       "MEAN_MOTION_DDOT": 0
    },
    {
       "OBJECT_NAME": "STARLINK-1033",
       "OBJECT_ID": "2019-074AB",
       "EPOCH": "2022-03-13T05:59:19.105152",
       "MEAN_MOTION": 15.06404784,
       "ECCENTRICITY": 0.0001475,
       "INCLINATION": 53.0544,
       "RA_OF_ASC_NODE": 269.3202,
       "ARG_OF_PERICENTER": 72.7594,
       "MEAN_ANOMALY": 287.3556,
       "EPHEMERIS_TYPE": 0,
       "CLASSIFICATION_TYPE": "U",
       "NORAD_CAT_ID": 44738,
       "ELEMENT_SET_NO": 999,
       "REV_AT_EPOCH": 12879,
       "BSTAR": -0.00015471,
       "MEAN_MOTION_DOT": -0.00002585,
       "MEAN_MOTION_DDOT": 0
    },
    {
       "OBJECT_NAME": "STARLINK-1052",
       "OBJECT_ID": "2019-074AC",
       "EPOCH": "2022-03-13T13:01:11.902368",
       "MEAN_MOTION": 15.10466052,
       "ECCENTRICITY": 0.0001227,
       "INCLINATION": 52.9977,
       "RA_OF_ASC_NODE": 262.2618,
       "ARG_OF_PERICENTER": 118.5033,
       "MEAN_ANOMALY": 241.608,
       "EPHEMERIS_TYPE": 0,
       "CLASSIFICATION_TYPE": "U",
       "NORAD_CAT_ID": 44739,
       "ELEMENT_SET_NO": 999,
       "REV_AT_EPOCH": 12888,
       "BSTAR": 0.0010687,
       "MEAN_MOTION_DOT": 0.0001754,
       "MEAN_MOTION_DDOT": 0
    }
 ]