STARLINK-1020           
1 44725U 19074N   22072.57388619 -.00000628  00000+0 -23260-4 0  9997
2 44725  53.0536 267.8549 0001463  68.4419 291.6726 15.06400531128844
STARLINK-1021           
1 44726U 19074P   22072.76372012 -.00000736  00000+0 -30537-4 0  9994
2 44726  53.0528 247.0217 0001539  72.3977 287.7180 15.06405881129322
STARLINK-1022           
1 44727U 19074Q   22072.86597292 -.00002085  00000+0 -12106-3 0  9995
2 44727  53.0533 286.5601 0001714  57.1216 302.9938 15.06403731128799
STARLINK-1024           
1 44729U 19074S   22072.77606117  .00010002  00000+0  62224-3 0  9996
2 44729  53.0003 260.8371 0001526  70.0158 290.0996 15.10193563129103
STARLINK-1026           
1 44731U 19074U   22072.77477463 -.00001144  00000+0 -57914-4 0  9999
2 44731  53.0522 246.9526 0001534  73.4772 286.6386 15.06392520129324
STARLINK-1027           
1 44732U 19074V   22072.56283595 -.00003586  00000+0 -22192-3 0  9999
2 44732  53.0531 267.9118 0001577  56.3868 303.7272 15.06401074128844
STARLINK-1028           
1 44733U 19074W   22072.76002842 -.00000976  00000+0 -46605-4 0  9992
2 44733  53.0524 247.0356 0001575  69.2005 290.9153 15.06413692129322
STARLINK-1029           
1 44734U 19074X   22072.57571788  .00010662  00000+0  73309-3 0  9993
2 44734  53.0548 167.8563 0001523  62.8723 297.2421 15.06423628130226
STARLINK-1030           
1 44735U 19074Y   22072.83559919 -.00000806  00000+0 -35216-4 0  9992
2 44735  53.0518 266.6866 0001650  59.7788 300.3364 15.06397584129057
STARLINK-1031           
1 44736U 19074Z   22072.85034277 -.00000788  00000+0 -33997-4 0  9993
2 44736  53.0550 266.6344 0001650  71.9535 288.1633 15.06394607129067
STARLINK-1032           
1 44737U 19074AA  22072.79505123 -.00000892  00000+0 -40967-4 0  9991
2 44737  53.0538 266.8827 0001594  60.8506 299.2643 15.06397967129059
STARLINK-1033           
1 44738U 19074AB  22072.24952668 -.00002585  00000+0 -15471-3 0  9994
2 44738  53.0544 269.3202 0001475  72.7594 287.3556 15.06404784128796
STARLINK-1052           
1 44739U 19074AC  22072.54249887  .00017540  00000+0  10687-2 0  9998
2 44739  52.9977 262.2618 0001227 118.5033 241.6080 15.10466052128886
